NORAD_CAT_ID,OBJECT_NAME,OBJECT_TYPE,EPOCH,MEAN_MOTION,ECCENTRICITY,INCLINATION,RA_OF_ASC_NODE,ARG_OF_PERICENTER,MEAN_ANOMALY,BSTAR,MEAN_MOTION_DOT,MEAN_MOTION_DDOT,TLE_LINE0,TLE_LINE1,TLE_LINE2,SEMIMAJOR_AXIS,PERIOD,APOGEE,PERIGEE,DECAYED
50191.0,STARLINK-3273,PAYLOAD,2023-03-23 16:21:02,15.08838367,0.0001391,53.2175,76.4483,112.3914,247.7226,-1.5579e-05,-5.36e-06,0.0,0 STARLINK-3273,1 50191U 21125AM  23082.68127335 -.00000536  00000-0 -15579-4 0  9994,2 50191  53.2175  76.4483 0001391 112.3914 247.7226 15.08838367 70026,6917.885,95.438,540.713,538.788,0.0
50191.0,STARLINK-3273,PAYLOAD,2023-03-24 05:04:06,15.08857274,0.000152,53.2173,74.0694,119.5289,240.5855,0.00033044,4.977e-05,0.0,0 STARLINK-3273,1 50191U 21125AM  23083.21118810  .00004977  00000-0  33044-3 0  9999,2 50191  53.2173  74.0694 0001520 119.5289 240.5855 15.08857274 70106,6917.828,95.436,540.744,538.641,0.0
50191.0,STARLINK-3273,PAYLOAD,2023-03-24 09:50:15,15.08861294,0.0001069,53.2168,73.1735,96.3832,263.7281,0.00051032,7.848e-05,0.0,0 STARLINK-3273,1 50191U 21125AM  23083.40990411  .00007848  00000-0  51032-3 0  9992,2 50191  53.2168  73.1735 0001069  96.3832 263.7281 15.08861294 73212,6917.815,95.436,540.42,538.941,0.0
50191.0,STARLINK-3273,PAYLOAD,2023-03-24 16:11:49,15.08837893,0.0001231,53.2172,71.9873,97.6274,262.4858,8.9062e-05,1.13e-05,0.0,0 STARLINK-3273,1 50191U 21125AM  23083.67487359  .00001130  00000-0  89062-4 0  9996,2 50191  53.2172  71.9873 0001231  97.6274 262.4858 15.08837893 70177,6917.887,95.438,540.603,538.9,0.0
50191.0,STARLINK-3273,PAYLOAD,2023-03-25 16:02:36,15.08834524,0.0001162,53.2174,67.5278,79.356,280.7563,-7.4555e-06,-4.06e-06,0.0,0 STARLINK-3273,1 50191U 21125AM  23084.66847542 -.00000406  00000-0 -74555-5 0  9999,2 50191  53.2174  67.5278 0001162  79.3560 280.7563 15.08834524 73400,6917.897,95.438,540.566,538.958,0.0
50191.0,STARLINK-3273,PAYLOAD,2023-03-26 04:45:41,15.08831139,0.0001204,53.2162,65.1444,81.1633,278.9496,0.00013688,1.891e-05,0.0,0 STARLINK-3273,1 50191U 21125AM  23085.19840099  .00001891  00000-0  13688-3 0  9993,2 50191  53.2162  65.1444 0001204  81.1633 278.9496 15.08831139 70405,6917.907,95.438,540.605,538.94,0.0
50191.0,STARLINK-3273,PAYLOAD,2023-03-26 15:53:24,15.08836992,0.0001464,53.2167,63.0639,74.7291,285.3863,0.00057952,8.946e-05,0.0,0 STARLINK-3273,1 50191U 21125AM  23085.66208375  .00008946  00000-0  57952-3 0  9990,2 50191  53.2167  63.0639 0001464  74.7291 285.3863 15.08836992 73550,6917.89,95.438,540.767,538.742,0.0
50191.0,STARLINK-3273,PAYLOAD,2023-03-27 07:47:15,15.08852887,0.0001455,53.2171,60.0885,83.6755,276.4403,0.00074175,0.00011541,0.0,0 STARLINK-3273,1 50191U 21125AM  23086.32448105  .00011541  00000-0  74175-3 0  9992,2 50191  53.2171  60.0885 0001455  83.6755 276.4403 15.08852887 70570,6917.841,95.437,540.713,538.699,0.0
50191.0,STARLINK-3273,PAYLOAD,2023-03-27 15:44:10,15.08851858,0.0001243,53.2168,58.605,68.1655,291.947,0.00063855,9.892e-05,0.0,0 STARLINK-3273,1 50191U 21125AM  23086.65567953  .00009892  00000-0  63855-3 0  9990,2 50191  53.2168  58.6050 0001243  68.1655 291.9470 15.08851858 73706,6917.844,95.437,540.569,538.849,0.0
50191.0,STARLINK-3273,PAYLOAD,2023-03-28 04:27:15,15.08851448,0.0001212,53.2183,56.2234,101.1773,258.9356,0.00042151,6.429e-05,0.0,0 STARLINK-3273,1 50191U 21125AM  23087.18559801  .00006429  00000-0  42151-3 0  9991,2 50191  53.2183  56.2234 0001212 101.1773 258.9356 15.08851448 70704,6917.845,95.437,540.549,538.872,0.0
50191.0,STARLINK-3273,PAYLOAD,2023-03-28 07:38:01,15.08855,0.0001249,53.2181,55.6281,101.5574,258.5559,0.00051051,7.849e-05,0.0,0 STARLINK-3273,1 50191U 21125AM  23087.31807673  .00007849  00000-0  51051-3 0  9995,2 50191  53.2181  55.6281 0001249 101.5574 258.5559 15.08855000 73803,6917.835,95.437,540.564,538.836,0.0
50191.0,STARLINK-3273,PAYLOAD,2023-03-29 07:28:48,15.08862622,0.000129,53.2171,51.1695,85.1872,274.9267,0.0010939,0.00017175,0.0,0 STARLINK-3273,1 50191U 21125AM  23088.31167572  .00017175  00000-0  10939-2 0  9995,2 50191  53.2171  51.1695 0001290  85.1872 274.9267 15.08862622 70876,6917.811,95.436,540.569,538.784,0.0
50191.0,STARLINK-3273,PAYLOAD,2023-03-30 05:44:12,15.08855184,0.0001366,53.2176,47.0049,94.5567,265.5581,0.0012802,0.00020154,0.0,0 STARLINK-3273,1 50191U 21125AM  23089.23903882  .00020154  00000-0  12802-2 0  9991,2 50191  53.2176  47.0049 0001366  94.5567 265.5581 15.08855184 71014,6917.834,95.437,540.644,538.754,0.0
50191.0,STARLINK-3273,PAYLOAD,2023-03-30 07:19:35,15.08861832,0.0001382,53.2178,46.709,106.5442,253.5702,0.0015453,0.00024406,0.0,0 STARLINK-3273,1 50191U 21125AM  23089.30527730  .00024406  00000-0  15453-2 0  9992,2 50191  53.2178  46.7090 0001382 106.5442 253.5702 15.08861832 74104,6917.814,95.436,540.635,538.723,0.0
50191.0,STARLINK-3273,PAYLOAD,2023-03-31 05:34:59,15.08859023,0.0001035,53.2176,42.5468,90.4876,269.6235,0.0016456,0.00026012,0.0,0 STARLINK-3273,1 50191U 21125AM  23090.23263875  .00026012  00000-0  16456-2 0  9992,2 50191  53.2176  42.5468 0001035  90.4876 269.6235 15.08859023 71163,6917.822,95.436,540.403,538.971,0.0
50191.0,STARLINK-3273,PAYLOAD,2023-04-01 05:25:47,15.0884096,0.0001009,53.2172,38.0862,90.3833,269.7274,0.0010626,0.00016664,0.0,0 STARLINK-3273,1 50191U 21125AM  23091.22624614  .00016664  00000-0  10626-2 0  9999,2 50191  53.2172  38.0862 0001009  90.3833 269.7274 15.08840960 71311,6917.877,95.437,540.44,539.044,0.0
50191.0,STARLINK-3273,PAYLOAD,2023-04-01 07:01:10,15.08840419,0.0001074,53.217,37.7891,99.866,260.2454,0.00095779,0.00014988,0.0,0 STARLINK-3273,1 50191U 21125AM  23091.29248597  .00014988  00000-0  95779-3 0  9998,2 50191  53.2170  37.7891 0001074  99.8660 260.2454 15.08840419 74409,6917.879,95.438,540.487,539.001,0.0
50191.0,STARLINK-3273,PAYLOAD,2023-04-02 05:16:34,15.08856285,0.0001369,53.2179,33.6266,73.9551,286.1592,0.0012838,0.00020212,0.0,0 STARLINK-3273,1 50191U 21125AM  23092.21984386  .00020212  00000-0  12838-2 0  9995,2 50191  53.2179  33.6266 0001369  73.9551 286.1592 15.08856285 71469,6917.831,95.437,540.643,538.749,0.0
50191.0,STARLINK-3273,PAYLOAD,2023-04-03 05:07:21,15.08852743,0.0001105,53.2172,29.1652,95.7837,264.3281,0.00049209,7.555e-05,0.0,0 STARLINK-3273,1 50191U 21125AM  23093.21344115  .00007555  00000-0  49209-3 0  9994,2 50191  53.2172  29.1652 0001105  95.7837 264.3281 15.08852743 71613,6917.841,95.437,540.471,538.942,0.0
50191.0,STARLINK-3273,PAYLOAD,2023-04-03 19:25:50,15.08831059,0.0001256,53.2176,26.4883,92.9073,267.2062,0.00055515,8.556e-05,0.0,0 STARLINK-3273,1 50191U 21125AM  23093.80960774  .00008556  00000-0  55515-3 0  9993,2 50191  53.2176  26.4883 0001256  92.9073 267.2062 15.08831059 71707,6917.908,95.438,540.642,538.904,0.0
50191.0,STARLINK-3273,PAYLOAD,2023-04-04 04:58:09,15.08845204,0.0001285,53.2179,24.704,95.7489,264.3649,0.0011944,0.00018775,0.0,0 STARLINK-3273,1 50191U 21125AM  23094.20704895  .00018775  00000-0  11944-2 0  9999,2 50191  53.2179  24.7040 0001285  95.7489 264.3649 15.08845204 74844,6917.864,95.437,540.618,538.841,0.0
50191.0,STARLINK-3273,PAYLOAD,2023-04-04 19:16:37,15.08836914,0.0001243,53.2184,22.0289,85.1366,274.9768,0.00063551,9.84e-05,0.0,0 STARLINK-3273,1 50191U 21125AM  23094.80321285  .00009840  00000-0  63551-3 0  9998,2 50191  53.2184  22.0289 0001243  85.1366 274.9768 15.08836914 71852,6917.89,95.438,540.615,538.895,0.0
50191.0,STARLINK-3273,PAYLOAD,2023-04-04 22:27:23,15.08839196,0.0001212,53.2183,21.4333,81.8817,278.2313,0.00070823,0.00011001,0.0,0 STARLINK-3273,1 50191U 21125AM  23094.93569351  .00011001  00000-0  70823-3 0  9992,2 50191  53.2183  21.4333 0001212  81.8817 278.2313 15.08839196 74956,6917.883,95.438,540.586,538.909,0.0
50191.0,STARLINK-3273,PAYLOAD,2023-04-05 04:48:56,15.08845974,0.0001262,53.2182,20.2435,87.1452,272.9685,0.00061686,9.545e-05,0.0,0 STARLINK-3273,1 50191U 21125AM  23095.20065169  .00009545  00000-0  61686-3 0  9998,2 50191  53.2182  20.2435 0001262  87.1452 272.9685 15.08845974 74992,6917.862,95.437,540.6,538.854,0.0
50191.0,STARLINK-3273,PAYLOAD,2023-04-05 22:18:10,15.08843113,0.0001231,53.2176,16.9721,97.3271,262.7861,0.00026724,3.968e-05,0.0,0 STARLINK-3273,1 50191U 21125AM  23095.92929209  .00003968  00000-0  26724-3 0  9998,2 50191  53.2176  16.9721 0001231  97.3271 262.7861 15.08843113 72021,6917.871,95.437,540.587,538.884,0.0
50191.0,STARLINK-3273,PAYLOAD,2023-04-06 03:04:20,15.08854522,0.0001102,53.2187,16.0806,86.8255,273.2863,0.0005934,9.172e-05,0.0,0 STARLINK-3273,1 50191U 21125AM  23096.12800932  .00009172  00000-0  59340-3 0  9995,2 50191  53.2187  16.0806 0001102  86.8255 273.2863 15.08854522 72058,6917.836,95.437,540.463,538.939,0.0
50191.0,STARLINK-3273,PAYLOAD,2023-04-06 18:58:11,15.08842295,0.0001269,53.2211,13.1099,90.0618,270.0519,0.00012929,1.77e-05,0.0,0 STARLINK-3273,1 50191U 21125AM  23096.79041250  .00001770  00000-0  12929-3 0  9996,2 50191  53.2211  13.1099 0001269  90.0618 270.0519 15.08842295 72150,6917.873,95.437,540.616,538.86,0.0
50191.0,STARLINK-3273,PAYLOAD,2023-04-07 04:30:30,15.08845072,0.0001097,53.217,11.3239,77.0437,283.0677,0.00016875,2.399e-05,0.0,0 STARLINK-3273,1 50191U 21125AM  23097.18785139  .00002399  00000-0  16875-3 0  9993,2 50191  53.2170  11.3239 0001097  77.0437 283.0677 15.08845072 75296,6917.865,95.437,540.489,538.971,0.0
50191.0,STARLINK-3273,PAYLOAD,2023-04-08 02:45:53,15.08849639,0.0001009,53.2177,7.163,84.9993,275.1114,0.00019367,2.797e-05,0.0,0 STARLINK-3273,1 50191U 21125AM  23098.11520790  .00002797  00000-0  19367-3 0  9998,2 50191  53.2177   7.1630 0001009  84.9993 275.1114 15.08849639 72353,6917.851,95.437,540.414,539.018,0.0
50191.0,STARLINK-3273,PAYLOAD,2023-04-09 02:36:42,15.08824869,0.0001393,53.217,2.7009,80.1698,279.9452,-0.00011227,-2.073e-05,0.0,0 STARLINK-3273,1 50191U 21125AM  23099.10882569 -.00002073  00000-0 -11227-3 0  9999,2 50191  53.2170   2.7009 0001393  80.1698 279.9452 15.08824869 72505,6917.927,95.439,540.755,538.828,0.0
